ONEWEB-0634             
1 56075U 23043AF  25114.14907893  .00000123  00000+0  29316-3 0  9998
2 56075  87.9091 342.7380 0001536  93.2431 266.8875 13.15548425102219
ONEWEB-0635             
1 56076U 23043AG  25114.14432265  .00000110  00000+0  25765-3 0  9995
2 56076  87.9063 342.7393 0001997  77.4421 282.6932 13.15547477102246
ONEWEB-0636             
1 56077U 23043AH  25114.13640023  .00000018  00000+0  14319-4 0  9999
2 56077  87.9072 342.7454 0001967  78.0432 282.0918 13.15548901102220
ONEWEB-0637             
1 56078U 23043AJ  25114.13007160 -.00000052  00000+0 -17206-3 0  9996
2 56078  87.9093 342.7395 0002066  88.1533 271.9834 13.15547717102243
ONEWEB-0647             
1 56079U 23043AK  25113.06050805 -.00000011  00000+0 -62970-4 0  9996
2 56079  87.9097 342.9630 0001807  78.4354 281.6979 13.15548636101188
ONEWEB-0651             
1 56080U 23043AL  25113.05575222 -.00000046  00000+0 -15672-3 0  9996
2 56080  87.9098 342.9504 0002119  84.7814 275.3558 13.15547101102381
ONEWEB-0718             
1 56081U 23043AM  25113.05099507 -.00000126  00000+0 -36996-3 0  9995
2 56081  87.9092 342.9356 0001552 100.1832 259.9474 13.15546808101190
ONEWEB-0561             
1 56710U 23068A   25113.65666473  .00000002  00000+0 -27756-4 0  9996
2 56710  87.9301 358.0000 0002218  70.7425 289.3948 13.20769644 94124
